OBJECT_NAME,OBJECT_ID,EPOCH,MEAN_MOTION,ECCENTRICITY,INCLINATION,RA_OF_ASC_NODE,ARG_OF_PERICENTER,MEAN_ANOMALY,EPHEMERIS_TYPE,CLASSIFICATION_TYPE,NORAD_CAT_ID,ELEMENT_SET_NO,REV_AT_EPOCH,BSTAR,MEAN_MOTION_DOT,MEAN_MOTION_DDOT
STARLINK-5059,2022-119AC,2024-07-07T23:21:42.218784,15.08845187,.0001414,53.2166,170.8813,79.1747,280.9404,0,U,53912,999,9936,.35973E-6,-.282E-5,0
STARLINK-5053,2022-119AD,2024-07-07T08:15:35.811936,15.08839395,.0001389,53.2166,174.0547,89.0023,271.1129,0,U,53913,999,9968,.45555E-4,.437E-5,0
STARLINK-5040,2022-119AE,2024-07-07T08:10:18.489792,15.08848009,.0001473,53.2160,174.0331,89.3761,270.7400,0,U,53914,999,9968,.21979E-3,.3212E-4,0
STARLINK-5017,2022-119AF,2024-07-07T08:31:30.883584,15.08840310,.0001416,53.2164,174.1212,87.9593,272.1561,0,U,53915,999,9968,.30595E-4,.199E-5,0
STARLINK-5051,2022-119AG,2024-07-07T04:09:07.478208,15.08830522,.0001476,53.2159,154.4903,96.4771,263.6390,0,U,53916,999,9952,-.13304E-3,-.2404E-4,0
STARLINK-5036,2022-119AH,2024-07-07T08:20:54.044736,15.08840236,.0001392,53.2167,174.0766,89.5190,270.5962,0,U,53917,999,9968,.52274E-4,.544E-5,0
STARLINK-5012,2022-119AJ,2024-07-07T08:04:59.123424,15.08837848,.0001352,53.2159,174.0087,94.3346,265.7801,0,U,53918,999,9968,.45118E-4,.43E-5,0
STARLINK-5023,2022-119AK,2024-07-07T07:59:41.040960,15.08834021,.0001418,53.2158,173.9845,93.9855,266.1299,0,U,53919,999,9968,.39149E-4,.335E-5,0
STARLINK-5025,2022-119AL,2024-07-08T03:32:12.961536,15.08836870,.0001406,53.2168,170.5264,88.6076,271.5077,0,U,53920,999,9938,.28785E-4,.17E-5,0
STARLINK-5002,2022-119AN,2024-07-07T09:19:08.612832,15.08839596,.0001409,53.2162,173.6200,93.1409,266.9744,0,U,53922,999,9969,-.16518E-5,-.314E-5,0
STARLINK-5004,2022-119AP,2024-07-07T06:18:59.505408,15.08832229,.0001443,53.2169,174.2599,95.9847,264.1309,0,U,53923,999,9925,.9782E-5,-.132E-5,0
STARLINK-5001,2022-119AQ,2024-07-07T08:02:59.992512,15.08840021,.0001448,53.2168,169.0151,88.3858,271.7300,0,U,53924,999,9975,-.57831E-5,-.38E-5,0
STARLINK-5011,2022-119AR,2024-07-07T23:16:25.236192,15.08825480,.0001307,53.2159,170.8609,88.6109,271.5032,0,U,53925,999,9936,-.34259E-4,-.833E-5,0
STARLINK-5014,2022-119AS,2024-07-07T07:47:04.481088,15.08841320,.0001419,53.2162,168.9431,95.8351,264.2803,0,U,53926,999,9976,.57705E-4,.631E-5,0
STARLINK-5008,2022-119AT,2024-07-07T05:02:50.512704,15.08837697,.0001231,53.2168,169.6672,89.9771,270.1362,0,U,53927,999,9973,.35457E-4,.276E-5,0
STARLINK-5009,2022-119AU,2024-07-07T04:50:13.925184,15.08843039,.0001384,53.2163,164.6095,88.9245,271.1905,0,U,53928,999,9938,.56083E-4,.605E-5,0
STARLINK-5018,2022-119AV,2024-07-07T09:10:01.586784,15.08842057,.0001293,53.2152,174.2712,85.7628,274.3512,0,U,53929,999,9968,.2813E-4,.16E-5,0
STARLINK-5010,2022-119AW,2024-07-07T07:39:47.083680,15.08840260,.0001474,53.2167,163.9221,88.9668,271.1493,0,U,53930,999,9982,.21609E-4,.56E-6,0
STARLINK-5015,2022-119AX,2024-07-07T07:27:10.960992,15.08841844,.0001362,53.2159,158.8843,94.3112,265.8036,0,U,53931,999,9989,.3167E-4,.216E-5,0
STARLINK-4772,2022-119AY,2024-07-08T01:54:47.655936,15.08837639,.0001463,53.2168,155.8591,96.7252,263.3907,0,U,53932,999,9958,.42874E-4,.394E-5,0
STARLINK-4782,2022-119AZ,2024-07-07T07:55:42.003264,15.08841371,.0001344,53.2160,163.9891,94.3528,265.7618,0,U,53933,999,9982,.84058E-5,-.154E-5,0
STARLINK-4775,2022-119BA,2024-07-07T05:09:28.630944,15.08832125,.0001322,53.2157,159.6981,90.1584,269.9559,0,U,53934,999,9945,.38207E-5,-.227E-5,0
STARLINK-5000,2022-119BB,2024-07-07T07:55:02.723232,15.08838984,.0001467,53.2173,149.0127,103.5238,256.5917,0,U,53935,999,10003,.36834E-4,.298E-5,0
STARLINK-4791,2022-119BC,2024-07-07T04:27:01.736064,15.08835945,.00013,53.2162,159.5176,93.6841,266.4300,0,U,53936,999,9945,-.12177E-4,-.482E-5,0
STARLINK-4765,2022-119BD,2024-07-07T08:02:20.513760,15.08836212,.00014,53.2171,154.0479,90.8212,269.2940,0,U,53937,999,9996,.24182E-4,.97E-6,0
STARLINK-4633,2022-125A,2024-07-07T02:43:06.376800,15.08840337,.0001481,53.2203,85.2606,115.9276,244.1869,0,U,53964,999,9721,-.12679E-4,-.49E-5,0
STARLINK-4578,2022-125B,2024-07-07T20:08:25.423296,15.08837454,.0001048,53.2179,81.9708,100.5140,259.5970,0,U,53965,999,9732,.76482E-4,.93E-5,0
STARLINK-4635,2022-125C,2024-07-07T21:37:07.191552,15.08844198,.0001405,53.2165,81.6448,88.1998,271.9155,0,U,53966,999,9733,.19469E-3,.2812E-4,0
STARLINK-4634,2022-125D,2024-07-07T23:07:12.136224,15.08846072,.000138,53.2157,81.3279,84.4179,275.6971,0,U,53967,999,9734,.5994E-3,.9266E-4,0
STARLINK-4629,2022-125E,2024-07-07T22:51:16.838208,15.08847335,.0001517,53.2176,81.2599,86.0201,274.0965,0,U,53968,999,9734,.13691E-3,.1892E-4,0
