STARLINK-5059           
1 53912U 22119AC  24189.97340531 -.00000282  00000+0  35973-6 0  9996
2 53912  53.2166 170.8813 0001414  79.1747 280.9404 15.08845187 99369
STARLINK-5053           
1 53913U 22119AD  24189.34416449  .00000437  00000+0  45555-4 0  9996
2 53913  53.2166 174.0547 0001389  89.0023 271.1129 15.08839395 99683
STARLINK-5040           
1 53914U 22119AE  24189.34049178  .00003212  00000+0  21979-3 0  9995
2 53914  53.2160 174.0331 0001473  89.3761 270.7400 15.08848009 99684
STARLINK-5017           
1 53915U 22119AF  24189.35521856  .00000199  00000+0  30595-4 0  9991
2 53915  53.2164 174.1212 0001416  87.9593 272.1561 15.08840310 99683
STARLINK-5051           
1 53916U 22119AG  24189.17300322 -.00002404  00000+0 -13304-3 0  9996
2 53916  53.2159 154.4903 0001476  96.4771 263.6390 15.08830522 99527
STARLINK-5036           
1 53917U 22119AH  24189.34784774  .00000544  00000+0  52274-4 0  9994
2 53917  53.2167 174.0766 0001392  89.5190 270.5962 15.08840236 99689
STARLINK-5012           
1 53918U 22119AJ  24189.33679541  .00000430  00000+0  45118-4 0  9992
2 53918  53.2159 174.0087 0001352  94.3346 265.7801 15.08837848 99683
STARLINK-5023           
1 53919U 22119AK  24189.33311390  .00000335  00000+0  39149-4 0  9999
2 53919  53.2158 173.9845 0001418  93.9855 266.1299 15.08834021 99682
STARLINK-5025           
1 53920U 22119AL  24190.14737224  .00000170  00000+0  28785-4 0  9991
2 53920  53.2168 170.5264 0001406  88.6076 271.5077 15.08836870 99381
STARLINK-5002           
1 53922U 22119AN  24189.38829413 -.00000314  00000+0 -16518-5 0  9993
2 53922  53.2162 173.6200 0001409  93.1409 266.9744 15.08839596 99696
STARLINK-5004           
1 53923U 22119AP  24189.26318872 -.00000132  00000+0  97820-5 0  9995
2 53923  53.2169 174.2599 0001443  95.9847 264.1309 15.08832229 99251
STARLINK-5001           
1 53924U 22119AQ  24189.33541658 -.00000380  00000+0 -57831-5 0  9998
2 53924  53.2168 169.0151 0001448  88.3858 271.7300 15.08840021 99759
STARLINK-5011           
1 53925U 22119AR  24189.96973653 -.00000833  00000+0 -34259-4 0  9993
2 53925  53.2159 170.8609 0001307  88.6109 271.5032 15.08825480 99363
STARLINK-5014           
1 53926U 22119AS  24189.32435742  .00000631  00000+0  57705-4 0  9991
2 53926  53.2162 168.9431 0001419  95.8351 264.2803 15.08841320 99762
STARLINK-5008           
1 53927U 22119AT  24189.21030686  .00000276  00000+0  35457-4 0  9993
2 53927  53.2168 169.6672 0001231  89.9771 270.1362 15.08837697 99731
STARLINK-5009           
1 53928U 22119AU  24189.20155006  .00000605  00000+0  56083-4 0  9991
2 53928  53.2163 164.6095 0001384  88.9245 271.1905 15.08843039 99387
STARLINK-5018           
1 53929U 22119AV  24189.38196281  .00000160  00000+0  28130-4 0  9999
2 53929  53.2152 174.2712 0001293  85.7628 274.3512 15.08842057 99689
STARLINK-5010           
1 53930U 22119AW  24189.31929495  .00000056  00000+0  21609-4 0  9993
2 53930  53.2167 163.9221 0001474  88.9668 271.1493 15.08840260 99820
STARLINK-5015           
1 53931U 22119AX  24189.31054353  .00000216  00000+0  31670-4 0  9993
2 53931  53.2159 158.8843 0001362  94.3112 265.8036 15.08841844 99895
STARLINK-4772           
1 53932U 22119AY  24190.07971824  .00000394  00000+0  42874-4 0  9995
2 53932  53.2168 155.8591 0001463  96.7252 263.3907 15.08837639 99589
STARLINK-4782           
1 53933U 22119AZ  24189.33034726 -.00000154  00000+0  84058-5 0  9990
2 53933  53.2160 163.9891 0001344  94.3528 265.7618 15.08841371 99823
STARLINK-4775           
1 53934U 22119BA  24189.21491471 -.00000227  00000+0  38207-5 0  9998
2 53934  53.2157 159.6981 0001322  90.1584 269.9559 15.08832125 99450
STARLINK-5000           
1 53935U 22119BB  24189.32989263  .00000298  00000+0  36834-4 0  9992
2 53935  53.2173 149.0127 0001467 103.5238 256.5917 15.08838984100035
STARLINK-4791           
1 53936U 22119BC  24189.18543676 -.00000482  00000+0 -12177-4 0  9992
2 53936  53.2162 159.5176 0001300  93.6841 266.4300 15.08835945 99452
STARLINK-4765           
1 53937U 22119BD  24189.33495965  .00000097  00000+0  24182-4 0  9996
2 53937  53.2171 154.0479 0001400  90.8212 269.2940 15.08836212 99966
STARLINK-4633           
1 53964U 22125A   24189.11326825 -.00000490  00000+0 -12679-4 0  9994
2 53964  53.2203  85.2606 0001481 115.9276 244.1869 15.08840337 97218
STARLINK-4578           
1 53965U 22125B   24189.83918314  .00000930  00000+0  76482-4 0  9993
2 53965  53.2179  81.9708 0001048 100.5140 259.5970 15.08837454 97327
STARLINK-4635           
1 53966U 22125C   24189.90077768  .00002812  00000+0  19469-3 0  9993
2 53966  53.2165  81.6448 0001405  88.1998 271.9155 15.08844198 97337
STARLINK-4634           
1 53967U 22125D   24189.96333491  .00009266  00000+0  59940-3 0  9996
2 53967  53.2157  81.3279 0001380  84.4179 275.6971 15.08846072 97341
STARLINK-4629           
1 53968U 22125E   24189.95227822  .00001892  00000+0  13691-3 0  9996
2 53968  53.2176  81.2599 0001517  86.0201 274.0965 15.08847335 97342
